<?xml version="1.0" encoding="UTF-8"?>
<ndm xmlns:xsi="http://www.w3.org/2001/XMLSchema-instance" xsi:noNamespaceSchemaLocation="https://sanaregistry.org/r/ndmxml_unqualified/ndmxml-2.0.0-master-2.0.xsd">
<omm id="CCSDS_OMM_VERS" version="2.0">
<header><CREATION_DATE/><ORIGINATOR/></header><body><segment><metadata><OBJECT_NAME>ORBCOMM FM20</OBJECT_NAME><OBJECT_ID>1998-046D</OBJECT_ID><CENTER_NAME>EARTH</CENTER_NAME><REF_FRAME>TEME</REF_FRAME><TIME_SYSTEM>UTC</TIME_SYSTEM><MEAN_ELEMENT_THEORY>SGP4</MEAN_ELEMENT_THEORY></metadata><data><meanElements><EPOCH>2024-05-17T14:53:51.915264</EPOCH><MEAN_MOTION>14.35256904</MEAN_MOTION><ECCENTRICITY>.000145</ECCENTRICITY><INCLINATION>44.9936</INCLINATION><RA_OF_ASC_NODE>251.7670</RA_OF_ASC_NODE><ARG_OF_PERICENTER>226.6259</ARG_OF_PERICENTER><MEAN_ANOMALY>133.4468</MEAN_ANOMALY></meanElements><tleParameters><EPHEMERIS_TYPE>0</EPHEMERIS_TYPE><CLASSIFICATION_TYPE>U</CLASSIFICATION_TYPE><NORAD_CAT_ID>25416</NORAD_CAT_ID><ELEMENT_SET_NO>999</ELEMENT_SET_NO><REV_AT_EPOCH>34739</REV_AT_EPOCH><BSTAR>.98083E-3</BSTAR><MEAN_MOTION_DOT>.2693E-4</MEAN_MOTION_DOT><MEAN_MOTION_DDOT>0</MEAN_MOTION_DDOT></tleParameters></data></segment></body></omm>
<omm id="CCSDS_OMM_VERS" version="2.0">
<header><CREATION_DATE/><ORIGINATOR/></header><body><segment><metadata><OBJECT_NAME>ORBCOMM FM16</OBJECT_NAME><OBJECT_ID>1998-046E</OBJECT_ID><CENTER_NAME>EARTH</CENTER_NAME><REF_FRAME>TEME</REF_FRAME><TIME_SYSTEM>UTC</TIME_SYSTEM><MEAN_ELEMENT_THEORY>SGP4</MEAN_ELEMENT_THEORY></metadata><data><meanElements><EPOCH>2024-05-17T13:47:19.916448</EPOCH><MEAN_MOTION>14.36251774</MEAN_MOTION><ECCENTRICITY>.0003063</ECCENTRICITY><INCLINATION>44.9933</INCLINATION><RA_OF_ASC_NODE>247.7012</RA_OF_ASC_NODE><ARG_OF_PERICENTER>137.5490</ARG_OF_PERICENTER><MEAN_ANOMALY>222.5595</MEAN_ANOMALY></meanElements><tleParameters><EPHEMERIS_TYPE>0</EPHEMERIS_TYPE><CLASSIFICATION_TYPE>U</CLASSIFICATION_TYPE><NORAD_CAT_ID>25417</NORAD_CAT_ID><ELEMENT_SET_NO>999</ELEMENT_SET_NO><REV_AT_EPOCH>34732</REV_AT_EPOCH><BSTAR>.14072E-2</BSTAR><MEAN_MOTION_DOT>.4008E-4</MEAN_MOTION_DOT><MEAN_MOTION_DDOT>0</MEAN_MOTION_DDOT></tleParameters></data></segment></body></omm>
<omm id="CCSDS_OMM_VERS" version="2.0">
<header><CREATION_DATE/><ORIGINATOR/></header><body><segment><metadata><OBJECT_NAME>ORBCOMM FM15</OBJECT_NAME><OBJECT_ID>1998-046F</OBJECT_ID><CENTER_NAME>EARTH</CENTER_NAME><REF_FRAME>TEME</REF_FRAME><TIME_SYSTEM>UTC</TIME_SYSTEM><MEAN_ELEMENT_THEORY>SGP4</MEAN_ELEMENT_THEORY></metadata><data><meanElements><EPOCH>2024-05-17T09:26:22.644096</EPOCH><MEAN_MOTION>14.35972530</MEAN_MOTION><ECCENTRICITY>.0002846</ECCENTRICITY><INCLINATION>44.9965</INCLINATION><RA_OF_ASC_NODE>252.6338</RA_OF_ASC_NODE><ARG_OF_PERICENTER>139.7030</ARG_OF_PERICENTER><MEAN_ANOMALY>220.4028</MEAN_ANOMALY></meanElements><tleParameters><EPHEMERIS_TYPE>0</EPHEMERIS_TYPE><CLASSIFICATION_TYPE>U</CLASSIFICATION_TYPE><NORAD_CAT_ID>25418</NORAD_CAT_ID><ELEMENT_SET_NO>999</ELEMENT_SET_NO><REV_AT_EPOCH>34730</REV_AT_EPOCH><BSTAR>.11531E-2</BSTAR><MEAN_MOTION_DOT>.3239E-4</MEAN_MOTION_DOT><MEAN_MOTION_DDOT>0</MEAN_MOTION_DDOT></tleParameters></data></segment></body></omm>
<omm id="CCSDS_OMM_VERS" version="2.0">
<header><CREATION_DATE/><ORIGINATOR/></header><body><segment><metadata><OBJECT_NAME>ORBCOMM FM14</OBJECT_NAME><OBJECT_ID>1998-046G</OBJECT_ID><CENTER_NAME>EARTH</CENTER_NAME><REF_FRAME>TEME</REF_FRAME><TIME_SYSTEM>UTC</TIME_SYSTEM><MEAN_ELEMENT_THEORY>SGP4</MEAN_ELEMENT_THEORY></metadata><data><meanElements><EPOCH>2024-05-17T15:05:20.062752</EPOCH><MEAN_MOTION>14.36149121</MEAN_MOTION><ECCENTRICITY>.0001537</ECCENTRICITY><INCLINATION>44.9954</INCLINATION><RA_OF_ASC_NODE>250.6267</RA_OF_ASC_NODE><ARG_OF_PERICENTER>152.5080</ARG_OF_PERICENTER><MEAN_ANOMALY>221.9950</MEAN_ANOMALY></meanElements><tleParameters><EPHEMERIS_TYPE>0</EPHEMERIS_TYPE><CLASSIFICATION_TYPE>U</CLASSIFICATION_TYPE><NORAD_CAT_ID>25419</NORAD_CAT_ID><ELEMENT_SET_NO>999</ELEMENT_SET_NO><REV_AT_EPOCH>34729</REV_AT_EPOCH><BSTAR>.15095E-2</BSTAR><MEAN_MOTION_DOT>.43E-4</MEAN_MOTION_DOT><MEAN_MOTION_DDOT>0</MEAN_MOTION_DDOT></tleParameters></data></segment></body></omm>
<omm id="CCSDS_OMM_VERS" version="2.0">
<header><CREATION_DATE/><ORIGINATOR/></header><body><segment><metadata><OBJECT_NAME>ORBCOMM FM13</OBJECT_NAME><OBJECT_ID>1998-046H</OBJECT_ID><CENTER_NAME>EARTH</CENTER_NAME><REF_FRAME>TEME</REF_FRAME><TIME_SYSTEM>UTC</TIME_SYSTEM><MEAN_ELEMENT_THEORY>SGP4</MEAN_ELEMENT_THEORY></metadata><data><meanElements><EPOCH>2024-05-17T14:32:06.116640</EPOCH><MEAN_MOTION>14.35418897</MEAN_MOTION><ECCENTRICITY>.0003356</ECCENTRICITY><INCLINATION>44.9965</INCLINATION><RA_OF_ASC_NODE>255.6475</RA_OF_ASC_NODE><ARG_OF_PERICENTER>109.7165</ARG_OF_PERICENTER><MEAN_ANOMALY>250.4044</MEAN_ANOMALY></meanElements><tleParameters><EPHEMERIS_TYPE>0</EPHEMERIS_TYPE><CLASSIFICATION_TYPE>U</CLASSIFICATION_TYPE><NORAD_CAT_ID>25420</NORAD_CAT_ID><ELEMENT_SET_NO>999</ELEMENT_SET_NO><REV_AT_EPOCH>34635</REV_AT_EPOCH><BSTAR>.11672E-2</BSTAR><MEAN_MOTION_DOT>.3243E-4</MEAN_MOTION_DOT><MEAN_MOTION_DDOT>0</MEAN_MOTION_DDOT></tleParameters></data></segment></body></omm>
<omm id="CCSDS_OMM_VERS" version="2.0">
<header><CREATION_DATE/><ORIGINATOR/></header><body><segment><metadata><OBJECT_NAME>ORBCOMM FM21</OBJECT_NAME><OBJECT_ID>1998-053A</OBJECT_ID><CENTER_NAME>EARTH</CENTER_NAME><REF_FRAME>TEME</REF_FRAME><TIME_SYSTEM>UTC</TIME_SYSTEM><MEAN_ELEMENT_THEORY>SGP4</MEAN_ELEMENT_THEORY></metadata><data><meanElements><EPOCH>2024-05-16T20:39:12.816000</EPOCH><MEAN_MOTION>14.35338019</MEAN_MOTION><ECCENTRICITY>.0000697</ECCENTRICITY><INCLINATION>45.0092</INCLINATION><RA_OF_ASC_NODE>343.4930</RA_OF_ASC_NODE><ARG_OF_PERICENTER>68.3525</ARG_OF_PERICENTER><MEAN_ANOMALY>291.7396</MEAN_ANOMALY></meanElements><tleParameters><EPHEMERIS_TYPE>0</EPHEMERIS_TYPE><CLASSIFICATION_TYPE>U</CLASSIFICATION_TYPE><NORAD_CAT_ID>25475</NORAD_CAT_ID><ELEMENT_SET_NO>999</ELEMENT_SET_NO><REV_AT_EPOCH>34026</REV_AT_EPOCH><BSTAR>.90525E-3</BSTAR><MEAN_MOTION_DOT>.2478E-4</MEAN_MOTION_DOT><MEAN_MOTION_DDOT>0</MEAN_MOTION_DDOT></tleParameters></data></segment></body></omm>
<omm id="CCSDS_OMM_VERS" version="2.0">
<header><CREATION_DATE/><ORIGINATOR/></header><body><segment><metadata><OBJECT_NAME>ORBCOMM FM22</OBJECT_NAME><OBJECT_ID>1998-053B</OBJECT_ID><CENTER_NAME>EARTH</CENTER_NAME><REF_FRAME>TEME</REF_FRAME><TIME_SYSTEM>UTC</TIME_SYSTEM><MEAN_ELEMENT_THEORY>SGP4</MEAN_ELEMENT_THEORY></metadata><data><meanElements><EPOCH>2024-05-16T20:03:36.614880</EPOCH><MEAN_MOTION>14.35871143</MEAN_MOTION><ECCENTRICITY>.0002149</ECCENTRICITY><INCLINATION>45.0086</INCLINATION><RA_OF_ASC_NODE>340.8699</RA_OF_ASC_NODE><ARG_OF_PERICENTER>41.6949</ARG_OF_PERICENTER><MEAN_ANOMALY>318.4062</MEAN_ANOMALY></meanElements><tleParameters><EPHEMERIS_TYPE>0</EPHEMERIS_TYPE><CLASSIFICATION_TYPE>U</CLASSIFICATION_TYPE><NORAD_CAT_ID>25476</NORAD_CAT_ID><ELEMENT_SET_NO>999</ELEMENT_SET_NO><REV_AT_EPOCH>34061</REV_AT_EPOCH><BSTAR>.11383E-2</BSTAR><MEAN_MOTION_DOT>.3189E-4</MEAN_MOTION_DOT><MEAN_MOTION_DDOT>0</MEAN_MOTION_DDOT></tleParameters></data></segment></body></omm>
<omm id="CCSDS_OMM_VERS" version="2.0">
<header><CREATION_DATE/><ORIGINATOR/></header><body><segment><metadata><OBJECT_NAME>ORBCOMM FM23</OBJECT_NAME><OBJECT_ID>1998-053C</OBJECT_ID><CENTER_NAME>EARTH</CENTER_NAME><REF_FRAME>TEME</REF_FRAME><TIME_SYSTEM>UTC</TIME_SYSTEM><MEAN_ELEMENT_THEORY>SGP4</MEAN_ELEMENT_THEORY></metadata><data><meanElements><EPOCH>2024-05-16T12:58:27.692256</EPOCH><MEAN_MOTION>14.35386030</MEAN_MOTION><ECCENTRICITY>.0001606</ECCENTRICITY><INCLINATION>45.0095</INCLINATION><RA_OF_ASC_NODE>347.4272</RA_OF_ASC_NODE><ARG_OF_PERICENTER>37.2515</ARG_OF_PERICENTER><MEAN_ANOMALY>322.8444</MEAN_ANOMALY></meanElements><tleParameters><EPHEMERIS_TYPE>0</EPHEMERIS_TYPE><CLASSIFICATION_TYPE>U</CLASSIFICATION_TYPE><NORAD_CAT_ID>25477</NORAD_CAT_ID><ELEMENT_SET_NO>999</ELEMENT_SET_NO><REV_AT_EPOCH>34036</REV_AT_EPOCH><BSTAR>.11629E-2</BSTAR><MEAN_MOTION_DOT>.3228E-4</MEAN_MOTION_DOT><MEAN_MOTION_DDOT>0</MEAN_MOTION_DDOT></tleParameters></data></segment></body></omm>

</ndm>
